NORAD_CAT_ID,OBJECT_NAME,OBJECT_TYPE,EPOCH,MEAN_MOTION,ECCENTRICITY,INCLINATION,RA_OF_ASC_NODE,ARG_OF_PERICENTER,MEAN_ANOMALY,BSTAR,MEAN_MOTION_DOT,MEAN_MOTION_DDOT,TLE_LINE0,TLE_LINE1,TLE_LINE2,SEMIMAJOR_AXIS,PERIOD,APOGEE,PERIGEE,DECAYED
49453.0,STARLINK-3129,PAYLOAD,2024-05-07 22:24:33,15.08841949,0.0001334,53.2161,350.3509,91.7158,268.3987,8.9513e-06,-1.45e-06,0.0,0 STARLINK-3129,1 49453U 21104AX  24128.93372407 -.00000145  00000-0  89513-5 0  9997,2 49453  53.2161 350.3509 0001334  91.7158 268.3987 15.08841949137511,6917.874,95.437,540.662,538.817,0.0
49453.0,STARLINK-3129,PAYLOAD,2024-05-08 07:56:53,15.08832442,0.000135,53.2156,348.5661,92.412,267.7027,7.0093e-05,8.28e-06,0.0,0 STARLINK-3129,1 49453U 21104AX  24129.33116963  .00000828  00000-0  70093-4 0  9994,2 49453  53.2156 348.5661 0001350  92.4120 267.7027 15.08832442137570,6917.903,95.438,540.702,538.835,0.0
49453.0,STARLINK-3129,PAYLOAD,2024-05-08 20:39:59,15.08777,0.0001285,53.2157,346.1891,78.0325,282.0811,-0.0012362,-0.00019874,0.0,0 STARLINK-3129,1 49453U 21104AX  24129.86111070 -.00019874  00000-0 -12362-2 0  9992,2 49453  53.2157 346.1891 0001285  78.0325 282.0811 15.08777000138721,6918.073,95.442,540.827,539.049,0.0
49453.0,STARLINK-3129,PAYLOAD,2024-05-09 07:47:41,15.08817237,0.0001453,53.2159,344.1065,92.2004,267.9154,0.00011913,1.607e-05,0.0,0 STARLINK-3129,1 49453U 21104AX  24130.32479107  .00001607  00000-0  11913-3 0  9998,2 49453  53.2159 344.1065 0001453  92.2004 267.9154 15.08817237138799,6917.95,95.439,540.82,538.81,0.0
49453.0,STARLINK-3129,PAYLOAD,2024-05-09 20:30:46,15.08855963,0.0001313,53.2157,341.7261,95.3928,264.7214,0.0016486,0.00026058,0.0,0 STARLINK-3129,1 49453U 21104AX  24130.85470720  .00026058  00000-0  16486-2 0  9994,2 49453  53.2157 341.7261 0001313  95.3928 264.7214 15.08855963138871,6917.832,95.437,540.605,538.788,0.0
49453.0,STARLINK-3129,PAYLOAD,2024-05-10 07:38:28,15.08868382,0.0001209,53.2139,339.6471,74.5016,285.6109,0.00084914,0.00013262,0.0,0 STARLINK-3129,1 49453U 21104AX  24131.31837981  .00013262  00000-0  84914-3 0  9997,2 49453  53.2139 339.6471 0001209  74.5016 285.6109 15.08868382138943,6917.794,95.436,540.495,538.822,0.0
49453.0,STARLINK-3129,PAYLOAD,2024-05-10 20:21:32,15.08861391,0.0001393,53.2174,337.2648,100.4031,259.7119,0.00028196,4.205e-05,0.0,0 STARLINK-3129,1 49453U 21104AX  24131.84829473  .00004205  00000-0  28196-3 0  9999,2 49453  53.2174 337.2648 0001393 100.4031 259.7119 15.08861391139028,6917.815,95.436,540.644,538.716,0.0
49453.0,STARLINK-3129,PAYLOAD,2024-05-11 20:12:18,15.08796787,0.000162,53.2177,332.8041,100.1436,259.9739,-0.0023103,-0.00036826,0.0,0 STARLINK-3129,1 49453U 21104AX  24132.84188065 -.00036826  00000-0 -23103-2 0  9993,2 49453  53.2177 332.8041 0001620 100.1436 259.9739 15.08796787139170,6918.012,95.44,540.998,538.757,0.0
49453.0,STARLINK-3129,PAYLOAD,2024-05-12 05:44:41,15.08737856,0.0002524,53.2171,331.021,100.7768,259.3508,-0.002429,-0.00038633,0.0,0 STARLINK-3129,1 49453U 21104AX  24133.23936624 -.00038633  00000-0 -24290-2 0  9995,2 49453  53.2171 331.0210 0002524 100.7768 259.3508 15.08737856139238,6918.193,95.444,541.804,538.311,0.0
49453.0,STARLINK-3129,PAYLOAD,2024-05-12 13:41:38,15.08728576,0.0001036,53.2181,329.5339,73.7919,286.3187,-0.0020193,-0.00032183,0.0,0 STARLINK-3129,1 49453U 21104AX  24133.57058886 -.00032183  00000-0 -20193-2 0  9999,2 49453  53.2181 329.5339 0001036  73.7919 286.3187 15.08728576138216,6918.221,95.445,540.803,539.369,0.0
49453.0,STARLINK-3129,PAYLOAD,2024-05-12 20:03:11,15.08763577,0.0001369,53.217,328.3458,101.8742,258.2404,0.0013802,0.000217,0.0,0 STARLINK-3129,1 49453U 21104AX  24133.83555079  .00021700  00000-0  13802-2 0  9994,2 49453  53.2170 328.3458 0001369 101.8742 258.2404 15.08763577139322,6918.114,95.442,540.926,539.032,0.0
49453.0,STARLINK-3129,PAYLOAD,2024-05-13 05:35:31,15.08792621,0.0001301,53.2185,326.5602,96.4052,263.7088,0.0023073,0.00036576,0.0,0 STARLINK-3129,1 49453U 21104AX  24134.23300469  .00036576  00000-0  23073-2 0  9998,2 49453  53.2185 326.5602 0001301  96.4052 263.7088 15.08792621139385,6918.025,95.441,540.79,538.99,0.0
49453.0,STARLINK-3129,PAYLOAD,2024-05-13 19:53:58,15.08860604,0.0001198,53.2172,323.8846,105.7233,254.3892,0.0013281,0.00020924,0.0,0 STARLINK-3129,1 49453U 21104AX  24134.82915302  .00020924  00000-0  13281-2 0  9991,2 49453  53.2172 323.8846 0001198 105.7233 254.3892 15.08860604139476,6917.817,95.436,540.511,538.854,0.0
49453.0,STARLINK-3129,PAYLOAD,2024-05-13 21:29:21,15.08864833,0.0001326,53.2171,323.5879,109.4487,250.6649,0.0011517,0.00018101,0.0,0 STARLINK-3129,1 49453U 21104AX  24134.89539103  .00018101  00000-0  11517-2 0  9993,2 49453  53.2171 323.5879 0001326 109.4487 250.6649 15.08864833138413,6917.804,95.436,540.587,538.752,0.0
49453.0,STARLINK-3129,PAYLOAD,2024-05-14 05:26:16,15.08882238,0.0001451,53.2171,322.1017,115.687,244.4272,0.00075172,0.0001171,0.0,0 STARLINK-3129,1 49453U 21104AX  24135.22657956  .00011710  00000-0  75172-3 0  9995,2 49453  53.2171 322.1017 0001451 115.6870 244.4272 15.08882238138463,6917.751,95.435,540.62,538.613,0.0
49453.0,STARLINK-3129,PAYLOAD,2024-05-15 05:17:00,15.08901163,0.0001921,53.2183,317.6389,84.8706,275.2505,0.00048724,7.488e-05,0.0,0 STARLINK-3129,1 49453U 21104AX  24136.22014734  .00007488  00000-0  48724-3 0  9997,2 49453  53.2183 317.6389 0001921  84.8706 275.2505 15.08901163139689,6917.693,95.434,540.887,538.23,0.0
49453.0,STARLINK-3129,PAYLOAD,2024-05-15 19:35:27,15.08883555,0.00011,53.2159,314.9646,115.1026,245.008,0.00037416,5.679e-05,0.0,0 STARLINK-3129,1 49453U 21104AX  24136.81629251  .00005679  00000-0  37416-3 0  9994,2 49453  53.2159 314.9646 0001100 115.1026 245.0080 15.08883555139777,6917.747,95.435,540.373,538.851,0.0
49453.0,STARLINK-3129,PAYLOAD,2024-05-16 11:29:19,15.08856824,0.00017,53.2142,311.9915,80.917,279.2015,-8.9246e-05,-1.709e-05,0.0,0 STARLINK-3129,1 49453U 21104AX  24137.47869579 -.00001709  00000-0 -89246-4 0  9997,2 49453  53.2142 311.9915 0001700  80.9170 279.2015 15.08856824139877,6917.829,95.436,540.87,538.518,0.0
49453.0,STARLINK-3129,PAYLOAD,2024-05-16 17:50:51,15.08857721,0.0001763,53.2139,310.8017,77.5381,282.5808,0.00016104,2.277e-05,0.0,0 STARLINK-3129,1 49453U 21104AX  24137.74365345  .00002277  00000-0  16104-3 0  9990,2 49453  53.2139 310.8017 0001763  77.5381 282.5808 15.08857721138849,6917.826,95.436,540.911,538.472,0.0
49453.0,STARLINK-3129,PAYLOAD,2024-05-17 04:58:33,15.08848911,9.32e-05,53.2143,308.7204,60.265,299.8434,0.00029414,4.398e-05,0.0,0 STARLINK-3129,1 49453U 21104AX  24138.20733322  .00004398  00000-0  29414-3 0  9990,2 49453  53.2143 308.7204 0000932  60.2650 299.8434 15.08848911139986,6917.853,95.437,540.363,539.073,0.0
49453.0,STARLINK-3129,PAYLOAD,2024-05-17 20:52:26,15.08830113,0.0001982,53.2177,305.7439,90.9701,269.1518,0.00012964,1.775e-05,0.0,0 STARLINK-3129,1 49453U 21104AX  24138.86974556  .00001775  00000-0  12964-3 0  9996,2 49453  53.2177 305.7439 0001982  90.9701 269.1518 15.08830113140084,6917.911,95.438,541.147,538.404,0.0
49453.0,STARLINK-3129,PAYLOAD,2024-05-18 11:10:53,15.08851388,0.0001867,53.2134,303.0695,80.6915,279.4288,0.00051699,7.952e-05,0.0,0 STARLINK-3129,1 49453U 21104AX  24139.46590111  .00007952  00000-0  51699-3 0  9995,2 49453  53.2134 303.0695 0001867  80.6915 279.4288 15.08851388140172,6917.846,95.437,541.002,538.419,0.0
49453.0,STARLINK-3129,PAYLOAD,2024-05-18 14:21:40,15.08858007,0.0001575,53.211,302.4731,79.9535,280.1634,0.00088683,0.00013861,0.0,0 STARLINK-3129,1 49453U 21104AX  24139.59838000  .00013861  00000-0  88683-3 0  9990,2 49453  53.2110 302.4731 0001575  79.9535 280.1634 15.08858007139127,6917.825,95.436,540.78,538.601,0.0
49453.0,STARLINK-3129,PAYLOAD,2024-05-18 17:32:26,15.08869177,0.0001164,53.2161,301.8772,78.0672,282.045,0.0016308,0.00025782,0.0,0 STARLINK-3129,1 49453U 21104AX  24139.73085739  .00025782  00000-0  16308-2 0  9998,2 49453  53.2161 301.8772 0001164  78.0672 282.0450 15.08869177140216,6917.791,95.436,540.461,538.851,0.0
49453.0,STARLINK-3129,PAYLOAD,2024-05-19 14:12:27,15.0884146,0.0001845,53.2156,298.0128,130.4711,229.6442,0.00012838,1.756e-05,0.0,0 STARLINK-3129,1 49453U 21104AX  24140.59197996  .00001756  00000-0  12838-3 0  9993,2 49453  53.2156 298.0128 0001845 130.4711 229.6442 15.08841460139272,6917.876,95.437,541.017,538.465,0.0
49453.0,STARLINK-3129,PAYLOAD,2024-05-19 20:33:59,15.08833613,0.0001356,53.216,296.8242,129.8195,230.2917,0.00016662,2.364e-05,0.0,0 STARLINK-3129,1 49453U 21104AX  24140.85694341  .00002364  00000-0  16662-3 0  9993,2 49453  53.2160 296.8242 0001356 129.8195 230.2917 15.08833613140385,6917.9,95.438,540.703,538.827,0.0
49453.0,STARLINK-3129,PAYLOAD,2024-05-20 10:52:28,15.08834463,0.0001583,53.2162,294.1474,135.3619,224.7501,0.00030317,4.54e-05,0.0,0 STARLINK-3129,1 49453U 21104AX  24141.45310724  .00004540  00000-0  30317-3 0  9991,2 49453  53.2162 294.1474 0001583 135.3619 224.7501 15.08834463139402,6917.897,95.438,540.857,538.667,0.0
49453.0,STARLINK-3129,PAYLOAD,2024-05-20 17:14:00,15.08857973,0.000138,53.2166,292.9569,117.0271,243.0862,0.0012279,0.00019318,0.0,0 STARLINK-3129,1 49453U 21104AX  24141.71806452  .00019318  00000-0  12279-2 0  9993,2 49453  53.2166 292.9569 0001380 117.0271 243.0862 15.08857973140512,6917.825,95.436,540.645,538.736,0.0
49453.0,STARLINK-3129,PAYLOAD,2024-05-21 13:54:01,15.08849295,0.0002053,53.2172,289.0941,135.2014,224.9144,0.0001512,2.12e-05,0.0,0 STARLINK-3129,1 49453U 21104AX  24142.57918365  .00002120  00000-0  15120-3 0  9997,2 49453  53.2172 289.0941 0002053 135.2014 224.9144 15.08849295139578,6917.852,95.437,541.137,538.297,0.0
49453.0,STARLINK-3129,PAYLOAD,2024-05-21 17:04:47,15.08857038,0.0001161,53.2168,288.4958,110.8343,249.2773,0.00084865,0.0001325,0.0,0 STARLINK-3129,1 49453U 21104AX  24142.71166428  .00013250  00000-0  84865-3 0  9996,2 49453  53.2168 288.4958 0001161 110.8343 249.2773 15.08857038140661,6917.828,95.436,540.496,538.89,0.0
